[{"OBJECT_NAME":"STARLINK-31621","OBJECT_ID":"2024-068L","EPOCH":"2026-03-09T05:54:47.810880","MEAN_MOTION":15.27567599,"ECCENTRICITY":0.00013699,"INCLINATION":43.0064,"RA_OF_ASC_NODE":37.1437,"ARG_OF_PERICENTER":259.3328,"MEAN_ANOMALY":100.7369,"EPHEMERIS_TYPE":0,"CLASSIFICATION_TYPE":"U","NORAD_CAT_ID":59465,"ELEMENT_SET_NO":999,"REV_AT_EPOCH":10845,"BSTAR":-8.3213466e-5,"MEAN_MOTION_DOT":-2.55e-5,"MEAN_MOTION_DDOT":0},{"OBJECT_NAME":"STARLINK-36554","OBJECT_ID":"2026-012K","EPOCH":"2026-03-08T17:06:15.871680","MEAN_MOTION":15.27591469,"ECCENTRICITY":6.955e-5,"INCLINATION":42.9934,"RA_OF_ASC_NODE":319.8184,"ARG_OF_PERICENTER":339.2059,"MEAN_ANOMALY":20.8765,"EPHEMERIS_TYPE":0,"CLASSIFICATION_TYPE":"U","NORAD_CAT_ID":67502,"ELEMENT_SET_NO":999,"REV_AT_EPOCH":761,"BSTAR":0.0011969118,"MEAN_MOTION_DOT":0.00032833,"MEAN_MOTION_DDOT":0}]
